IRIDIUM 39              
1 25042U 97069D   25177.03586712  .00000372  00000+0  92187-4 0  9990
2 25042  86.3924 207.3392 0015481 278.6412  81.3038 14.49227155450509
IRIDIUM 38              
1 25043U 97069E   25176.24009921  .00000247  00000+0  74834-4 0  9995
2 25043  86.3960 229.7678 0004201  83.3195 276.8481 14.38122507447111
IRIDIUM 44              
1 25078U 97077B   25176.95310456  .00000252  00000+0  73460-4 0  9998
2 25078  86.3966 217.5528 0002957  51.9444 308.2021 14.40247231444996
IRIDIUM 45              
1 25104U 97082A   25176.73177757  .00008151  00000+0  29107-3 0  9999
2 25104  86.3574  43.7441 0113829 300.3507  58.6519 15.22624330453343
IRIDIUM 24              
1 25105U 97082B   25176.42925547  .00000360  00000+0  10334-3 0  9990
2 25105  86.3898  76.8056 0013321  56.4121 303.8349 14.42105326444402
IRIDIUM 57              
1 25273U 98019B   25176.60410537  .00000225  00000+0  70754-4 0  9998
2 25273  86.3978 141.7365 0002346  86.1348 274.0117 14.35897647425999
